[{"OBJECT_NAME":"ICEYE-X4","OBJECT_ID":"2019-038D","EPOCH":"2026-03-09T23:53:58.416000","MEAN_MOTION":15.26985132,"ECCENTRICITY":0.00122769,"INCLINATION":97.8888,"RA_OF_ASC_NODE":96.1923,"ARG_OF_PERICENTER":293.9914,"MEAN_ANOMALY":66.0038,"EPHEMERIS_TYPE":0,"CLASSIFICATION_TYPE":"U","NORAD_CAT_ID":44390,"ELEMENT_SET_NO":999,"REV_AT_EPOCH":36665,"BSTAR":0.00049915294,"MEAN_MOTION_DOT":0.00013179,"MEAN_MOTION_DDOT":0},{"OBJECT_NAME":"STARLINK-32790","OBJECT_ID":"2025-034V","EPOCH":"2026-03-09T21:23:00.497472","MEAN_MOTION":15.30199536,"ECCENTRICITY":8.896e-5,"INCLINATION":53.1569,"RA_OF_ASC_NODE":257.4706,"ARG_OF_PERICENTER":103.4612,"MEAN_ANOMALY":256.6488,"EPHEMERIS_TYPE":0,"CLASSIFICATION_TYPE":"U","NORAD_CAT_ID":63048,"ELEMENT_SET_NO":999,"REV_AT_EPOCH":5911,"BSTAR":0.0011224324,"MEAN_MOTION_DOT":0.00033031,"MEAN_MOTION_DDOT":0}]
